NORAD_CAT_ID,OBJECT_NAME,OBJECT_TYPE,EPOCH,MEAN_MOTION,ECCENTRICITY,INCLINATION,RA_OF_ASC_NODE,ARG_OF_PERICENTER,MEAN_ANOMALY,BSTAR,MEAN_MOTION_DOT,MEAN_MOTION_DDOT,TLE_LINE0,TLE_LINE1,TLE_LINE2,SEMIMAJOR_AXIS,PERIOD,APOGEE,PERIGEE,DECAYED
51990.0,STARLINK-3657,PAYLOAD,2022-08-11 14:00:01,15.08818493,0.0001375,53.2163,122.4561,93.0122,44.9365,0.002905,0.00046221,0.0,0 STARLINK-3657,1 51990U 22025AL  22223.58334491  .00046221  00000-0  29050-2 0  9996,2 51990  53.2163 122.4561 0001375  93.0122  44.9365 15.08818493  1302,6917.946,95.439,540.762,538.86,0.0
51990.0,STARLINK-3657,PAYLOAD,2022-08-11 20:00:01,15.0886293,0.0001434,53.2165,121.3346,91.9987,324.6336,-0.0013674,-0.00021998,0.0,0 STARLINK-3657,1 51990U 22025AL  22223.83334491 -.00021998  00000-0 -13674-2 0  9995,2 51990  53.2165 121.3346 0001434  91.9987 324.6336 15.08862930 25302,6917.81,95.436,540.6669999999998,538.683,0.0
51990.0,STARLINK-3657,PAYLOAD,2022-08-12 12:00:00,15.08828185,0.0001288,53.2159,118.3413,94.1048,345.769,0.00159,0.00025099,0.0,0 STARLINK-3657,1 51990U 22025AL  22224.50001157  .00025099  00000-0  15900-2 0  9998,2 51990  53.2159 118.3413 0001288  94.1048 345.7690 15.08828185 25408,6917.917,95.438,540.673,538.89,0.0
51990.0,STARLINK-3657,PAYLOAD,2022-08-12 14:00:01,15.08819847,0.000129,53.2156,117.967,94.9986,77.77600000000002,0.0031483,0.00050146,0.0,0 STARLINK-3657,1 51990U 22025AL  22224.58334491  .00050146  00000-0  31483-2 0  9991,2 51990  53.2156 117.9670 0001290  94.9986  77.7760 15.08819847  1305,6917.941999999999,95.439,540.6990000000002,538.915,0.0
51990.0,STARLINK-3657,PAYLOAD,2022-08-12 22:00:01,15.08866732,0.0001382,53.2156,116.4719,88.9831,95.4421,-0.0027006,-0.00043043,0.0,0 STARLINK-3657,1 51990U 22025AL  22224.91668981 -.00043043  00000-0 -27006-2 0  9998,2 51990  53.2156 116.4719 0001382  88.9831  95.4421 15.08866732  1303,6917.799,95.436,540.62,538.7080000000002,0.0
51990.0,STARLINK-3657,PAYLOAD,2022-08-13 04:00:00,15.08824587,0.0001376999999999,53.2153,115.3503,83.1668,19.9089,0.00109,0.00017095,0.0,0 STARLINK-3657,1 51990U 22025AL  22225.16667824  .00017095  00000-0  10900-2 0  9992,2 51990  53.2153 115.3503 0001377  83.1668  19.9089 15.08824587 25509,6917.928000000001,95.439,540.745,538.84,0.0
51990.0,STARLINK-3657,PAYLOAD,2022-08-13 14:00:01,15.08796197,0.0001345,53.2151,113.4776,94.2201,113.3426,0.0017771,0.00028074,0.0,0 STARLINK-3657,1 51990U 22025AL  22225.58334491  .00028074  00000-0  17771-2 0  9991,2 51990  53.2151 113.4776 0001345  94.2201 113.3426 15.08796197  1300,6918.014,95.44,540.81,538.9490000000002,0.0
51990.0,STARLINK-3657,PAYLOAD,2022-08-13 22:00:00,15.08819482,0.0001374,53.2151,111.9827,87.8704,131.248,-0.00084775,-0.00013747,0.0,0 STARLINK-3657,1 51990U 22025AL  22225.91667824 -.00013747  00000-0 -84775-3 0  9999,2 51990  53.2151 111.9827 0001374  87.8704 131.2480 15.08819482  1300,6917.943,95.439,540.759,538.8580000000002,0.0
51990.0,STARLINK-3657,PAYLOAD,2022-08-14 12:00:00,15.08808864,0.0001302,53.2151,109.3624,92.0439,57.3999,0.0024901999999999,0.00039532,0.0,0 STARLINK-3657,1 51990U 22025AL  22226.50001157  .00039532  00000-0  24902-2 0  9999,2 51990  53.2151 109.3624 0001302  92.0439  57.3999 15.08808864 25705,6917.976,95.44,540.741,538.94,0.0
51990.0,STARLINK-3657,PAYLOAD,2022-08-14 14:00:01,15.0880975,0.0001348,53.215,108.988,93.1944,149.1431,0.0029785,0.00047394,0.0,0 STARLINK-3657,1 51990U 22025AL  22226.58334491  .00047394  00000-0  29785-2 0  9996,2 51990  53.2150 108.9880 0001348  93.1944 149.1431 15.08809750  1302,6917.973000000001,95.439,540.77,538.905,0.0
51990.0,STARLINK-3657,PAYLOAD,2022-08-14 22:00:00,15.08842799,0.0001396999999999,53.215,107.4931,85.6755,168.2421,-0.00065383,-0.00010679,0.0,0 STARLINK-3657,1 51990U 22025AL  22226.91667824 -.00010679  00000-0 -65383-3 0  9995,2 51990  53.2150 107.4931 0001397  85.6755 168.2421 15.08842799  1304,6917.871999999999,95.437,540.703,538.77,0.0
51990.0,STARLINK-3657,PAYLOAD,2022-08-15 04:00:00,15.08840012,0.000133,53.215,106.371,80.4296,92.1836,-0.00043544,-7.211e-05,0.0,0 STARLINK-3657,1 51990U 22025AL  22227.16667824 -.00007211  00000-0 -43544-3 0  9996,2 51990  53.2150 106.3710 0001330  80.4296  92.1836 15.08840012 25809,6917.88,95.438,540.665,538.825,0.0
51990.0,STARLINK-3657,PAYLOAD,2022-08-15 14:00:01,15.08805133,0.0001268,53.2152,104.4983,92.0732,185.0333,0.0029555999999999,0.00047019,0.0,0 STARLINK-3657,1 51990U 22025AL  22227.58334491  .00047019  00000-0  29556-2 0  9997,2 51990  53.2152 104.4983 0001268  92.0732 185.0333 15.08805133  1304,6917.986999999999,95.44,540.729,538.975,0.0
51990.0,STARLINK-3657,PAYLOAD,2022-08-15 22:00:00,15.08834396,0.0001328,53.2153,103.0035,83.1918,205.4873,-0.00053539,-8.797e-05,0.0,0 STARLINK-3657,1 51990U 22025AL  22227.91667824 -.00008797  00000-0 -53539-3 0  9994,2 51990  53.2153 103.0035 0001328  83.1918 205.4873 15.08834396  1301,6917.898,95.438,540.681,538.844,0.0
51990.0,STARLINK-3657,PAYLOAD,2022-08-16 04:00:01,15.08828664,0.0001296999999999,53.2153,101.8814,79.2774,128.1551,0.0017847999999999,0.00028222,0.0,0 STARLINK-3657,1 51990U 22025AL  22228.16668981  .00028222  00000-0  17848-2 0  9992,2 51990  53.2153 101.8814 0001297  79.2774 128.1551 15.08828664 25955,6917.915,95.438,540.677,538.883,0.0
51990.0,STARLINK-3657,PAYLOAD,2022-08-16 14:00:01,15.08841309,0.0001341999999999,53.2157,100.0088,91.8807,219.9855,6.8058e-05,7.95e-06,0.0,0 STARLINK-3657,1 51990U 22025AL  22228.58334491  .00000795  00000-0  68058-4 0  9990,2 51990  53.2157 100.0088 0001342  91.8807 219.9855 15.08841309  1301,6917.876,95.437,540.67,538.813,0.0
51990.0,STARLINK-3657,PAYLOAD,2022-08-16 22:00:00,15.08825994,0.000147,53.2158,98.5141,83.3298,240.1314,-0.00048721,-8.031e-05,0.0,0 STARLINK-3657,1 51990U 22025AL  22228.91667824 -.00008031  00000-0 -48721-3 0  9993,2 51990  53.2158  98.5141 0001470  83.3298 240.1314 15.08825994 26063,6917.9230000000025,95.438,540.805,538.771,0.0
51990.0,STARLINK-3657,PAYLOAD,2022-08-17 14:00:01,15.08819768,0.0001424,53.2161,95.5196,93.1404,253.4849,0.0026218,0.00041662,0.0,0 STARLINK-3657,1 51990U 22025AL  22229.58334491  .00041662  00000-0  26218-2 0  9999,2 51990  53.2161  95.5196 0001424  93.1404 253.4849 15.08819768 26164,6917.941999999999,95.439,540.7919999999998,538.822,0.0
51990.0,STARLINK-3657,PAYLOAD,2022-08-17 16:00:00,15.08842534,0.0001435,53.2162,95.1458,92.6664,346.8496,0.00069216,0.00010746,0.0,0 STARLINK-3657,1 51990U 22025AL  22229.66667824  .00010746  00000-0  69216-3 0  9992,2 51990  53.2162  95.1458 0001435  92.6664 346.8496 15.08842534  1307,6917.873000000001,95.437,540.73,538.745,0.0
51990.0,STARLINK-3657,PAYLOAD,2022-08-18 06:00:02,15.08858629,0.0001373,53.2159,92.5278,82.4559,287.4061,-0.0014394,-0.00023134,0.0,0 STARLINK-3657,1 51990U 22025AL  22230.25002315 -.00023134  00000-0 -14394-2 0  9990,2 51990  53.2159  92.5278 0001373  82.4559 287.4061 15.08858629 26267,6917.823,95.436,540.638,538.739,0.0
51990.0,STARLINK-3657,PAYLOAD,2022-08-18 14:00:01,15.08849396,0.0001336,53.2162,91.0305,92.9241,288.4826,0.001064,0.0001669,0.0,0 STARLINK-3657,1 51990U 22025AL  22230.58334491  .00016690  00000-0  10640-2 0  9996,2 51990  53.2162  91.0305 0001336  92.9241 288.4826 15.08849396  1308,6917.852,95.437,540.641,538.7919999999998,0.0
51990.0,STARLINK-3657,PAYLOAD,2022-08-18 22:00:00,15.08835932,0.000133,53.2161,89.5358,83.5108,309.509,-0.00042599,-7.06e-05,0.0,0 STARLINK-3657,1 51990U 22025AL  22230.91667824 -.00007060  00000-0 -42599-3 0  9994,2 51990  53.2161  89.5358 0001330  83.5108 309.5090 15.08835932  1308,6917.893,95.438,540.678,538.8380000000002,0.0
51990.0,STARLINK-3657,PAYLOAD,2022-08-19 04:00:01,15.08850353,0.0001246,53.2157,88.4133,81.8021,229.9661,-0.0013415999999999,-0.00021582,0.0,0 STARLINK-3657,1 51990U 22025AL  22231.16668981 -.00021582  00000-0 -13416-2 0  9997,2 51990  53.2157  88.4133 0001246  81.8021 229.9661 15.08850353 26404,6917.849,95.437,540.576,538.852,0.0
51990.0,STARLINK-3657,PAYLOAD,2022-08-19 14:00:01,15.08816158,0.000139,53.2161,86.5415,94.1917,322.0117,0.0015895,0.00025083,0.0,0 STARLINK-3657,1 51990U 22025AL  22231.58334491  .00025083  00000-0  15895-2 0  9990,2 51990  53.2161  86.5415 0001390  94.1917 322.0117 15.08816158  1300,6917.953,95.439,540.78,538.857,0.0
51990.0,STARLINK-3657,PAYLOAD,2022-08-19 22:00:00,15.08820787,0.0001422,53.216,85.04700000000003,84.8272,342.9506,0.00013022,1.784e-05,0.0,0 STARLINK-3657,1 51990U 22025AL  22231.91667824  .00001784  00000-0  13022-3 0  9999,2 51990  53.2160  85.0470 0001422  84.8272 342.9506 15.08820787  1306,6917.939,95.439,540.788,538.82,0.0
51990.0,STARLINK-3657,PAYLOAD,2022-08-20 04:00:00,15.08836641,0.0001345,53.2155,83.9243,83.5585,262.8932,-0.00094615,-0.00015313,0.0,0 STARLINK-3657,1 51990U 22025AL  22232.16667824 -.00015313  00000-0 -94615-3 0  9999,2 51990  53.2155  83.9243 0001345  83.5585 262.8932 15.08836641 26555,6917.891,95.438,540.686,538.825,0.0
51990.0,STARLINK-3657,PAYLOAD,2022-08-20 14:00:01,15.08831316,0.0001411,53.2158,82.0526,94.5793,356.3545,0.0014918,0.00023528,0.0,0 STARLINK-3657,1 51990U 22025AL  22232.58334491  .00023528  00000-0  14918-2 0  9998,2 51990  53.2158  82.0526 0001411  94.5793 356.3545 15.08831316  1308,6917.906999999997,95.438,540.748,538.7959999999998,0.0
51990.0,STARLINK-3657,PAYLOAD,2022-08-20 22:00:00,15.08833889,0.0001415,53.2158,80.5581,84.7897,17.7392,0.00057858,8.931e-05,0.0,0 STARLINK-3657,1 51990U 22025AL  22232.91667824  .00008931  00000-0  57858-3 0  9996,2 51990  53.2158  80.5581 0001415  84.7897  17.7392 15.08833889 26674,6917.899,95.438,540.743,538.785,0.0
51990.0,STARLINK-3657,PAYLOAD,2022-08-21 14:00:01,15.08826106,0.0001313,53.2158,77.5635,94.124,31.5926,0.00034763,5.247e-05,0.0,0 STARLINK-3657,1 51990U 22025AL  22233.58334491  .00005247  00000-0  34763-3 0  9998,2 51990  53.2158  77.5635 0001313  94.1240  31.5926 15.08826106  1308,6917.9230000000025,95.438,540.696,538.88,0.0
